LANDSAT 9               
1 49260U 21088A   24217.17087569  .00000899  00000+0  20963-3 0  9997
2 49260  98.2295 286.1706 0001374  89.6074 270.5282 14.57108333151678
